SILVERSAT               
1 66909U 98067XV  26044.42548171  .00134299  00000+0  13607-2 0  9994
2 66909  51.6260 188.3804 0002770 293.4989  66.5714 15.64307124 11389
ISS OBJECT XW           
1 66910U 98067XW  26044.38164745  .00105325  00000+0  11463-2 0  9998
2 66910  51.6247 188.8321 0001962 326.0768  34.0101 15.62605060 11372
ISS OBJECT XX           
1 66911U 98067XX  26043.62569575  .00155735  00000+0  14994-2 0  9997
2 66911  51.6233 192.0300 0003356 305.0177  55.0503 15.65511224 11259
ISS OBJECT XY           
1 66912U 98067XY  26044.38921727  .00076961  00000+0  94947-3 0  9993
2 66912  51.6276 189.6411 0000428 311.8587  48.2370 15.59483728 11356
ISS OBJECT XZ           
1 67683U 98067XZ  26044.49819139  .00038624  00000+0  68337-3 0  9992
2 67683  51.6300 191.8659 0010698 107.9097 252.3059 15.49863173  1030
GXIBA-1                 
1 67684U 98067YA  26044.49531410  .00072637  00000+0  12378-2 0  9991
2 67684  51.6297 191.8480 0012438 102.1044 258.1339 15.50625182  1034
CORAL                   
1 67685U 98067YB  26044.43312298  .00041154  00000+0  72338-3 0  9990
2 67685  51.6298 192.1814 0012674 103.5970 256.6432 15.49994242  1026
ISS OBJECT YC           
1 67686U 98067YC  26044.49711192  .00050526  00000+0  88211-3 0  9993
2 67686  51.6303 191.8604 0007776  78.1569 282.0292 15.50148889  1033
LEOPARD                 
1 67687U 98067YD  26044.49784016  .00040673  00000+0  71765-3 0  9997
2 67687  51.6303 191.8641 0007879  80.5540 279.6339 15.49944796   958
ISS OBJECT YE           
1 67688U 98067YE  26044.49727213  .00045896  00000+0  80424-3 0  9998
2 67688  51.6307 191.8609 0007761  79.3277 280.8586 15.50086213   951
CREW DRAGON 12          
1 67796U 26031A   26044.61047855  .00465694  11779-4  25516-3 0  9994
2 67796  51.6318 191.8838 0025866 226.1048 133.7834 16.18051748    32
