CCSDS_OMM_VERS = 2.0
CREATION_DATE  = 
ORIGINATOR     = 

OBJECT_NAME    = SILVERSAT
OBJECT_ID      = 1998-067XV
CENTER_NAME    = EARTH
REF_FRAME      = TEME
TIME_SYSTEM    = UTC
MEAN_ELEMENT_THEORY = SGP/SGP4

EPOCH          = 2026-02-13T10:12:41.619744
MEAN_MOTION    = 15.64307124
ECCENTRICITY   = .000277
INCLINATION    = 51.6260
RA_OF_ASC_NODE = 188.3804
ARG_OF_PERICENTER = 293.4989
MEAN_ANOMALY   = 66.5714

EPHEMERIS_TYPE = 0
CLASSIFICATION_TYPE = U
NORAD_CAT_ID   = 66909
ELEMENT_SET_NO = 999
REV_AT_EPOCH   = 1138
BSTAR          = .13607E-2
MEAN_MOTION_DOT = .134299E-2
MEAN_MOTION_DDOT = 0

CCSDS_OMM_VERS = 2.0
CREATION_DATE  = 
ORIGINATOR     = 

OBJECT_NAME    = ISS OBJECT XW
OBJECT_ID      = 1998-067XW
CENTER_NAME    = EARTH
REF_FRAME      = TEME
TIME_SYSTEM    = UTC
MEAN_ELEMENT_THEORY = SGP/SGP4

EPOCH          = 2026-02-13T09:09:34.339680
MEAN_MOTION    = 15.62605060
ECCENTRICITY   = .0001962
INCLINATION    = 51.6247
RA_OF_ASC_NODE = 188.8321
ARG_OF_PERICENTER = 326.0768
MEAN_ANOMALY   = 34.0101

EPHEMERIS_TYPE = 0
CLASSIFICATION_TYPE = U
NORAD_CAT_ID   = 66910
ELEMENT_SET_NO = 999
REV_AT_EPOCH   = 1137
BSTAR          = .11463E-2
MEAN_MOTION_DOT = .105325E-2
MEAN_MOTION_DDOT = 0

CCSDS_OMM_VERS = 2.0
CREATION_DATE  = 
ORIGINATOR     = 

OBJECT_NAME    = ISS OBJECT XX
OBJECT_ID      = 1998-067XX
CENTER_NAME    = EARTH
REF_FRAME      = TEME
TIME_SYSTEM    = UTC
MEAN_ELEMENT_THEORY = SGP/SGP4

EPOCH          = 2026-02-12T15:01:00.112800
MEAN_MOTION    = 15.65511224
ECCENTRICITY   = .0003356
INCLINATION    = 51.6233
RA_OF_ASC_NODE = 192.0300
ARG_OF_PERICENTER = 305.0177
MEAN_ANOMALY   = 55.0503

EPHEMERIS_TYPE = 0
CLASSIFICATION_TYPE = U
NORAD_CAT_ID   = 66911
ELEMENT_SET_NO = 999
REV_AT_EPOCH   = 1125
BSTAR          = .14994E-2
MEAN_MOTION_DOT = .155735E-2
MEAN_MOTION_DDOT = 0

CCSDS_OMM_VERS = 2.0
CREATION_DATE  = 
ORIGINATOR     = 

OBJECT_NAME    = ISS OBJECT XY
OBJECT_ID      = 1998-067XY
CENTER_NAME    = EARTH
REF_FRAME      = TEME
TIME_SYSTEM    = UTC
MEAN_ELEMENT_THEORY = SGP/SGP4

EPOCH          = 2026-02-13T09:20:28.372128
MEAN_MOTION    = 15.59483728
ECCENTRICITY   = .0000428
INCLINATION    = 51.6276
RA_OF_ASC_NODE = 189.6411
ARG_OF_PERICENTER = 311.8587
MEAN_ANOMALY   = 48.2370

EPHEMERIS_TYPE = 0
CLASSIFICATION_TYPE = U
NORAD_CAT_ID   = 66912
ELEMENT_SET_NO = 999
REV_AT_EPOCH   = 1135
BSTAR          = .94947E-3
MEAN_MOTION_DOT = .76961E-3
MEAN_MOTION_DDOT = 0

CCSDS_OMM_VERS = 2.0
CREATION_DATE  = 
ORIGINATOR     = 

OBJECT_NAME    = ISS OBJECT XZ
OBJECT_ID      = 1998-067XZ
CENTER_NAME    = EARTH
REF_FRAME      = TEME
TIME_SYSTEM    = UTC
MEAN_ELEMENT_THEORY = SGP/SGP4

EPOCH          = 2026-02-13T11:57:23.736096
MEAN_MOTION    = 15.49863173
ECCENTRICITY   = .0010698
INCLINATION    = 51.6300
RA_OF_ASC_NODE = 191.8659
ARG_OF_PERICENTER = 107.9097
MEAN_ANOMALY   = 252.3059

EPHEMERIS_TYPE = 0
CLASSIFICATION_TYPE = U
NORAD_CAT_ID   = 67683
ELEMENT_SET_NO = 999
REV_AT_EPOCH   = 103
BSTAR          = .68337E-3
MEAN_MOTION_DOT = .38624E-3
MEAN_MOTION_DDOT = 0

CCSDS_OMM_VERS = 2.0
CREATION_DATE  = 
ORIGINATOR     = 

OBJECT_NAME    = GXIBA-1
OBJECT_ID      = 1998-067YA
CENTER_NAME    = EARTH
REF_FRAME      = TEME
TIME_SYSTEM    = UTC
MEAN_ELEMENT_THEORY = SGP/SGP4

EPOCH          = 2026-02-13T11:53:15.138240
MEAN_MOTION    = 15.50625182
ECCENTRICITY   = .0012438
INCLINATION    = 51.6297
RA_OF_ASC_NODE = 191.8480
ARG_OF_PERICENTER = 102.1044
MEAN_ANOMALY   = 258.1339

EPHEMERIS_TYPE = 0
CLASSIFICATION_TYPE = U
NORAD_CAT_ID   = 67684
ELEMENT_SET_NO = 999
REV_AT_EPOCH   = 103
BSTAR          = .12378E-2
MEAN_MOTION_DOT = .72637E-3
MEAN_MOTION_DDOT = 0

CCSDS_OMM_VERS = 2.0
CREATION_DATE  = 
ORIGINATOR     = 

OBJECT_NAME    = CORAL
OBJECT_ID      = 1998-067YB
CENTER_NAME    = EARTH
REF_FRAME      = TEME
TIME_SYSTEM    = UTC
MEAN_ELEMENT_THEORY = SGP/SGP4

EPOCH          = 2026-02-13T10:23:41.825472
MEAN_MOTION    = 15.49994242
ECCENTRICITY   = .0012674
INCLINATION    = 51.6298
RA_OF_ASC_NODE = 192.1814
ARG_OF_PERICENTER = 103.5970
MEAN_ANOMALY   = 256.6432

EPHEMERIS_TYPE = 0
CLASSIFICATION_TYPE = U
NORAD_CAT_ID   = 67685
ELEMENT_SET_NO = 999
REV_AT_EPOCH   = 102
BSTAR          = .72338E-3
MEAN_MOTION_DOT = .41154E-3
MEAN_MOTION_DDOT = 0

CCSDS_OMM_VERS = 2.0
CREATION_DATE  = 
ORIGINATOR     = 

OBJECT_NAME    = ISS OBJECT YC
OBJECT_ID      = 1998-067YC
CENTER_NAME    = EARTH
REF_FRAME      = TEME
TIME_SYSTEM    = UTC
MEAN_ELEMENT_THEORY = SGP/SGP4

EPOCH          = 2026-02-13T11:55:50.469888
MEAN_MOTION    = 15.50148889
ECCENTRICITY   = .0007776
INCLINATION    = 51.6303
RA_OF_ASC_NODE = 191.8604
ARG_OF_PERICENTER = 78.1569
MEAN_ANOMALY   = 282.0292

EPHEMERIS_TYPE = 0
CLASSIFICATION_TYPE = U
NORAD_CAT_ID   = 67686
ELEMENT_SET_NO = 999
REV_AT_EPOCH   = 103
BSTAR          = .88211E-3
MEAN_MOTION_DOT = .50526E-3
MEAN_MOTION_DDOT = 0

CCSDS_OMM_VERS = 2.0
CREATION_DATE  = 
ORIGINATOR     = 

OBJECT_NAME    = LEOPARD
OBJECT_ID      = 1998-067YD
CENTER_NAME    = EARTH
REF_FRAME      = TEME
TIME_SYSTEM    = UTC
MEAN_ELEMENT_THEORY = SGP/SGP4

EPOCH          = 2026-02-13T11:56:53.389824
MEAN_MOTION    = 15.49944796
ECCENTRICITY   = .0007879
INCLINATION    = 51.6303
RA_OF_ASC_NODE = 191.8641
ARG_OF_PERICENTER = 80.5540
MEAN_ANOMALY   = 279.6339

EPHEMERIS_TYPE = 0
CLASSIFICATION_TYPE = U
NORAD_CAT_ID   = 67687
ELEMENT_SET_NO = 999
REV_AT_EPOCH   = 95
BSTAR          = .71765E-3
MEAN_MOTION_DOT = .40673E-3
MEAN_MOTION_DDOT = 0

CCSDS_OMM_VERS = 2.0
CREATION_DATE  = 
ORIGINATOR     = 

OBJECT_NAME    = ISS OBJECT YE
OBJECT_ID      = 1998-067YE
CENTER_NAME    = EARTH
REF_FRAME      = TEME
TIME_SYSTEM    = UTC
MEAN_ELEMENT_THEORY = SGP/SGP4

EPOCH          = 2026-02-13T11:56:04.312032
MEAN_MOTION    = 15.50086213
ECCENTRICITY   = .0007761
INCLINATION    = 51.6307
RA_OF_ASC_NODE = 191.8609
ARG_OF_PERICENTER = 79.3277
MEAN_ANOMALY   = 280.8586

EPHEMERIS_TYPE = 0
CLASSIFICATION_TYPE = U
NORAD_CAT_ID   = 67688
ELEMENT_SET_NO = 999
REV_AT_EPOCH   = 95
BSTAR          = .80424E-3
MEAN_MOTION_DOT = .45896E-3
MEAN_MOTION_DDOT = 0

CCSDS_OMM_VERS = 2.0
CREATION_DATE  = 
ORIGINATOR     = 

OBJECT_NAME    = CREW DRAGON 12
OBJECT_ID      = 2026-031A
CENTER_NAME    = EARTH
REF_FRAME      = TEME
TIME_SYSTEM    = UTC
MEAN_ELEMENT_THEORY = SGP/SGP4

EPOCH          = 2026-02-13T14:39:05.346720
MEAN_MOTION    = 16.18051748
ECCENTRICITY   = .0025866
INCLINATION    = 51.6318
RA_OF_ASC_NODE = 191.8838
ARG_OF_PERICENTER = 226.1048
MEAN_ANOMALY   = 133.7834

EPHEMERIS_TYPE = 0
CLASSIFICATION_TYPE = U
NORAD_CAT_ID   = 67796
ELEMENT_SET_NO = 999
REV_AT_EPOCH   = 3
BSTAR          = .25516E-3
MEAN_MOTION_DOT = .465694E-2
MEAN_MOTION_DDOT = .11779E-4

